start=new Date('2023-04-09T00:00:00.000Z').valueOf();
sats=[{"MEAN_MOTION":"15.08850359","TIME_SYSTEM":"UTC","TLE_LINE1":"1 52606U 22052J   23098.18696548  .00004060  00000-0  27294-3 0  9996","MEAN_MOTION_DDOT":"0.0000000000000","PERIAPSIS":"539.054","DECAY_DATE":null,"MEAN_MOTION_DOT":"0.00004060","CENTER_NAME":"EARTH","COUNTRY_CODE":"US","REV_AT_EPOCH":"5022","ARG_OF_PERICENTER":"83.0390","REF_FRAME":"TEME","OBJECT_ID":"2022-052J","OBJECT_TYPE":"PAYLOAD","RA_OF_ASC_NODE":"26.8348","APOAPSIS":"540.374","BSTAR":"0.00027294000000","ELEMENT_SET_NO":"999","MEAN_ANOMALY":"277.0711","TLE_LINE2":"2 52606  53.2170  26.8348 0000954  83.0390 277.0711 15.08850359 50229","MEAN_ELEMENT_THEORY":"SGP4","NORAD_CAT_ID":"52606","INCLINATION":"53.2170","SEMIMAJOR_AXIS":"6917.849","CLASSIFICATION_TYPE":"U","FILE":"3883533","SITE":"AFETR","EPHEMERIS_TYPE":"0","PERIOD":"95.437","OBJECT_NAME":"STARLINK-3928","LAUNCH_DATE":"2022-05-14","GP_ID":"229734255","ECCENTRICITY":"0.00009540","RCS_SIZE":"LARGE","EPOCH":"2023-04-08T04:29:13.817472"},{"TLE_LINE2":"2 52607  53.2178  31.7050 0001301  95.1000 265.0140 15.08851923 49771","MEAN_ANOMALY":"265.0140","ELEMENT_SET_NO":"999","BSTAR":"0.00031210000000","APOAPSIS":"540.609","RA_OF_ASC_NODE":"31.7050","CLASSIFICATION_TYPE":"U","FILE":"3883527","SEMIMAJOR_AXIS":"6917.844","INCLINATION":"53.2178","MEAN_ELEMENT_THEORY":"SGP4","NORAD_CAT_ID":"52607","OBJECT_NAME":"STARLINK-3947","LAUNCH_DATE":"2022-05-14","PERIOD":"95.437","EPHEMERIS_TYPE":"0","SITE":"AFETR","EPOCH":"2023-04-08T05:14:59.876448","RCS_SIZE":"LARGE","GP_ID":"229730855","ECCENTRICITY":"0.00013010","TLE_LINE1":"1 52607U 22052K   23098.21874857  .00004684  00000-0  31210-3 0  9997","TIME_SYSTEM":"UTC","MEAN_MOTION":"15.08851923","PERIAPSIS":"538.809","MEAN_MOTION_DDOT":"0.0000000000000","ARG_OF_PERICENTER":"95.1000","REV_AT_EPOCH":"4977","COUNTRY_CODE":"US","CENTER_NAME":"EARTH","MEAN_MOTION_DOT":"0.00004684","DECAY_DATE":null,"OBJECT_TYPE":"PAYLOAD","OBJECT_ID":"2022-052K","REF_FRAME":"TEME"},{"GP_ID":"229734788","ECCENTRICITY":"0.00012740","RCS_SIZE":"LARGE","EPOCH":"2023-04-08T18:37:07.252896","SITE":"AFETR","EPHEMERIS_TYPE":"0","PERIOD":"95.438","OBJECT_NAME":"STARLINK-3979","LAUNCH_DATE":"2022-05-14","MEAN_ELEMENT_THEORY":"SGP4","NORAD_CAT_ID":"52608","SEMIMAJOR_AXIS":"6917.899","INCLINATION":"53.2177","FILE":"3883535","CLASSIFICATION_TYPE":"U","RA_OF_ASC_NODE":"24.1919","APOAPSIS":"540.645","BSTAR":"0.00006657600000","ELEMENT_SET_NO":"999","MEAN_ANOMALY":"268.2378","TLE_LINE2":"2 52608  53.2177  24.1919 0001274  91.8760 268.2378 15.08834040 50317","REF_FRAME":"TEME","OBJECT_ID":"2022-052L","OBJECT_TYPE":"PAYLOAD","DECAY_DATE":null,"MEAN_MOTION_DOT":"0.00000772","CENTER_NAME":"EARTH","COUNTRY_CODE":"US","REV_AT_EPOCH":"5031","ARG_OF_PERICENTER":"91.8760","MEAN_MOTION_DDOT":"0.0000000000000","PERIAPSIS":"538.882","MEAN_MOTION":"15.08834040","TIME_SYSTEM":"UTC","TLE_LINE1":"1 52608U 22052L   23098.77577839  .00000772  00000-0  66576-4 0  9997"},{"ECCENTRICITY":"0.00011120","GP_ID":"229731852","RCS_SIZE":"LARGE","EPOCH":"2023-04-08T05:38:06.662112","SITE":"AFETR","EPHEMERIS_TYPE":"0","PERIOD":"95.437","LAUNCH_DATE":"2022-05-14","OBJECT_NAME":"STARLINK-3997","NORAD_CAT_ID":"52609","MEAN_ELEMENT_THEORY":"SGP4","INCLINATION":"53.2176","SEMIMAJOR_AXIS":"6917.841","CLASSIFICATION_TYPE":"U","FILE":"3883527","RA_OF_ASC_NODE":"26.5711","APOAPSIS":"540.475","BSTAR":"0.00017924000000","ELEMENT_SET_NO":"999","MEAN_ANOMALY":"261.1090","TLE_LINE2":"2 52609  53.2176  26.5711 0001112  99.0028 261.1090 15.08852946 49867","REF_FRAME":"TEME","OBJECT_ID":"2022-052M","OBJECT_TYPE":"PAYLOAD","DECAY_DATE":null,"MEAN_MOTION_DOT":"0.00002567","CENTER_NAME":"EARTH","COUNTRY_CODE":"US","REV_AT_EPOCH":"4986","ARG_OF_PERICENTER":"99.0028","MEAN_MOTION_DDOT":"0.0000000000000","PERIAPSIS":"538.937","MEAN_MOTION":"15.08852946","TIME_SYSTEM":"UTC","TLE_LINE1":"1 52609U 22052M   23098.23479933  .00002567  00000-0  17924-3 0  9991"},{"RA_OF_ASC_NODE":"31.6780","BSTAR":"0.00060779000000","ELEMENT_SET_NO":"999","APOAPSIS":"540.732","MEAN_ANOMALY":"263.9400","TLE_LINE2":"2 52610  53.2186  31.6780 0001482  96.1761 263.9400 15.08852711 49781","NORAD_CAT_ID":"52610","MEAN_ELEMENT_THEORY":"SGP4","SEMIMAJOR_AXIS":"6917.842","INCLINATION":"53.2186","CLASSIFICATION_TYPE":"U","FILE":"3883527","SITE":"AFETR","PERIOD":"95.437","EPHEMERIS_TYPE":"0","OBJECT_NAME":"STARLINK-3998","LAUNCH_DATE":"2022-05-14","RCS_SIZE":"LARGE","GP_ID":"229730106","ECCENTRICITY":"0.00014820","EPOCH":"2023-04-08T05:18:55.065888","TIME_SYSTEM":"UTC","MEAN_MOTION":"15.08852711","TLE_LINE1":"1 52610U 22052N   23098.22147067  .00009402  00000-0  60779-3 0  9993","MEAN_MOTION_DDOT":"0.0000000000000","PERIAPSIS":"538.681","DECAY_DATE":null,"MEAN_MOTION_DOT":"0.00009402","COUNTRY_CODE":"US","REV_AT_EPOCH":"4978","CENTER_NAME":"EARTH","ARG_OF_PERICENTER":"96.1761","REF_FRAME":"TEME","OBJECT_TYPE":"PAYLOAD","OBJECT_ID":"2022-052N"},{"SITE":"AFETR","PERIOD":"95.438","EPHEMERIS_TYPE":"0","OBJECT_NAME":"STARLINK-3980","LAUNCH_DATE":"2022-05-14","RCS_SIZE":"LARGE","GP_ID":"229734313","ECCENTRICITY":"0.00013300","EPOCH":"2023-04-08T19:26:47.899104","RA_OF_ASC_NODE":"29.0395","ELEMENT_SET_NO":"999","BSTAR":"0.00004326400000","APOAPSIS":"540.670","MEAN_ANOMALY":"291.7578","TLE_LINE2":"2 52611  53.2176  29.0395 0001330  68.3556 291.7578 15.08838679 50244","MEAN_ELEMENT_THEORY":"SGP4","NORAD_CAT_ID":"52611","SEMIMAJOR_AXIS":"6917.884","INCLINATION":"53.2176","FILE":"3883537","CLASSIFICATION_TYPE":"U","DECAY_DATE":null,"MEAN_MOTION_DOT":"0.00000401","REV_AT_EPOCH":"5024","COUNTRY_CODE":"US","CENTER_NAME":"EARTH","ARG_OF_PERICENTER":"68.3556","REF_FRAME":"TEME","OBJECT_TYPE":"PAYLOAD","OBJECT_ID":"2022-052P","TIME_SYSTEM":"UTC","MEAN_MOTION":"15.08838679","TLE_LINE1":"1 52611U 22052P   23098.81027661  .00000401  00000-0  43264-4 0  9997","MEAN_MOTION_DDOT":"0.0000000000000","PERIAPSIS":"538.829"},{"MEAN_MOTION":"15.08850799","TIME_SYSTEM":"UTC","TLE_LINE1":"1 52612U 22052Q   23098.24216773  .00002990  00000-0  20583-3 0  9992","MEAN_MOTION_DDOT":"0.0000000000000","PERIAPSIS":"538.904","DECAY_DATE":null,"MEAN_MOTION_DOT":"0.00002990","CENTER_NAME":"EARTH","REV_AT_EPOCH":"4986","COUNTRY_CODE":"US","ARG_OF_PERICENTER":"114.8128","REF_FRAME":"TEME","OBJECT_TYPE":"PAYLOAD","OBJECT_ID":"2022-052Q","RA_OF_ASC_NODE":"26.5855","APOAPSIS":"540.520","ELEMENT_SET_NO":"999","BSTAR":"0.00020583000000","MEAN_ANOMALY":"245.2986","TLE_LINE2":"2 52612  53.2175  26.5855 0001168 114.8128 245.2986 15.08850799 49868","MEAN_ELEMENT_THEORY":"SGP4","NORAD_CAT_ID":"52612","SEMIMAJOR_AXIS":"6917.847","INCLINATION":"53.2175","FILE":"3883527","CLASSIFICATION_TYPE":"U","SITE":"AFETR","EPHEMERIS_TYPE":"0","PERIOD":"95.437","LAUNCH_DATE":"2022-05-14","OBJECT_NAME":"STARLINK-4002","ECCENTRICITY":"0.00011680","GP_ID":"229731606","RCS_SIZE":"LARGE","EPOCH":"2023-04-08T05:48:43.291872"},{"TLE_LINE2":"2 52613  53.2179  14.2917 0001064  99.4572 260.6541 15.08839246 50440","MEAN_ANOMALY":"260.6541","BSTAR":"0.00003623300000","ELEMENT_SET_NO":"999","APOAPSIS":"540.484","RA_OF_ASC_NODE":"14.2917","CLASSIFICATION_TYPE":"U","FILE":"3883539","SEMIMAJOR_AXIS":"6917.883","INCLINATION":"53.2179","MEAN_ELEMENT_THEORY":"SGP4","NORAD_CAT_ID":"52613","LAUNCH_DATE":"2022-05-14","OBJECT_NAME":"STARLINK-3921","PERIOD":"95.438","EPHEMERIS_TYPE":"0","SITE":"AFETR","EPOCH":"2023-04-08T18:06:39.135168","RCS_SIZE":"LARGE","GP_ID":"229734332","ECCENTRICITY":"0.00010640","TLE_LINE1":"1 52613U 22052R   23098.75461962  .00000289  00000-0  36233-4 0  9990","TIME_SYSTEM":"UTC","MEAN_MOTION":"15.08839246","PERIAPSIS":"539.012","MEAN_MOTION_DDOT":"0.0000000000000","ARG_OF_PERICENTER":"99.4572","COUNTRY_CODE":"US","REV_AT_EPOCH":"5044","CENTER_NAME":"EARTH","MEAN_MOTION_DOT":"0.00000289","DECAY_DATE":null,"OBJECT_TYPE":"PAYLOAD","OBJECT_ID":"2022-052R","REF_FRAME":"TEME"},{"EPOCH":"2023-04-08T18:11:56.417568","RCS_SIZE":"LARGE","ECCENTRICITY":"0.00012700","GP_ID":"229734374","LAUNCH_DATE":"2022-05-14","OBJECT_NAME":"STARLINK-3982","PERIOD":"95.437","EPHEMERIS_TYPE":"0","SITE":"AFETR","FILE":"3883541","CLASSIFICATION_TYPE":"U","SEMIMAJOR_AXIS":"6917.868","INCLINATION":"53.2179","NORAD_CAT_ID":"52614","MEAN_ELEMENT_THEORY":"SGP4","TLE_LINE2":"2 52614  53.2179  14.2723 0001270  90.2591 269.8547 15.08844149 50440","MEAN_ANOMALY":"269.8547","ELEMENT_SET_NO":"999","BSTAR":"0.00012241000000","APOAPSIS":"540.611","RA_OF_ASC_NODE":"14.2723","OBJECT_ID":"2022-052S","OBJECT_TYPE":"PAYLOAD","REF_FRAME":"TEME","ARG_OF_PERICENTER":"90.2591","COUNTRY_CODE":"US","REV_AT_EPOCH":"5044","CENTER_NAME":"EARTH","MEAN_MOTION_DOT":"0.00001661","DECAY_DATE":null,"PERIAPSIS":"538.854","MEAN_MOTION_DDOT":"0.0000000000000","TLE_LINE1":"1 52614U 22052S   23098.75829187  .00001661  00000-0  12241-3 0  9995","TIME_SYSTEM":"UTC","MEAN_MOTION":"15.08844149"},{"PERIOD":"95.437","EPHEMERIS_TYPE":"0","OBJECT_NAME":"STARLINK-4011","LAUNCH_DATE":"2022-05-14","SITE":"AFETR","EPOCH":"2023-04-08T05:03:01.246176","RCS_SIZE":"LARGE","GP_ID":"229730856","ECCENTRICITY":"0.00012830","MEAN_ANOMALY":"249.4232","TLE_LINE2":"2 52615  53.2182  31.7279 0001283 110.6898 249.4232 15.08846534 49775","RA_OF_ASC_NODE":"31.7279","ELEMENT_SET_NO":"999","BSTAR":"0.00018397000000","APOAPSIS":"540.613","SEMIMAJOR_AXIS":"6917.860","INCLINATION":"53.2182","FILE":"3883527","CLASSIFICATION_TYPE":"U","NORAD_CAT_ID":"52615","MEAN_ELEMENT_THEORY":"SGP4","COUNTRY_CODE":"US","REV_AT_EPOCH":"4977","CENTER_NAME":"EARTH","ARG_OF_PERICENTER":"110.6898","DECAY_DATE":null,"MEAN_MOTION_DOT":"0.00002642","OBJECT_TYPE":"PAYLOAD","OBJECT_ID":"2022-052T","REF_FRAME":"TEME","TLE_LINE1":"1 52615U 22052T   23098.21043109  .00002642  00000-0  18397-3 0  9997","TIME_SYSTEM":"UTC","MEAN_MOTION":"15.08846534","PERIAPSIS":"538.838","MEAN_MOTION_DDOT":"0.0000000000000"}];
